1 37673U 11024A   15147.56318306  .00000230  00000-0  44177-4 0  9996
2 37673 098.0114 154.8405 0001394 097.5370 012.5588 14.72275739212906